NORAD_CAT_ID,OBJECT_NAME,OBJECT_TYPE,EPOCH,MEAN_MOTION,ECCENTRICITY,INCLINATION,RA_OF_ASC_NODE,ARG_OF_PERICENTER,MEAN_ANOMALY,BSTAR,MEAN_MOTION_DOT,MEAN_MOTION_DDOT,TLE_LINE0,TLE_LINE1,TLE_LINE2,SEMIMAJOR_AXIS,PERIOD,APOGEE,PERIGEE,DECAYED
53154.0,STARLINK-4077,PAYLOAD,2023-05-05 03:59:42,15.08836244,0.0001359,53.2141,150.7191,93.6943,266.4204,3.8916e-05,3.31e-06,0.0,0 STARLINK-4077,1 53154U 22083Y   23125.16646286  .00000331  00000-0  38916-4 0  9993,2 53154  53.2141 150.7191 0001359  93.6943 266.4204 15.08836244 45051,6917.892,95.438,540.697,538.817,0.0
53154.0,STARLINK-4077,PAYLOAD,2023-05-05 18:18:10,15.08836501,0.00013,53.2155,148.0426,92.822,267.2921,6.6055e-05,7.63e-06,0.0,0 STARLINK-4077,1 53154U 22083Y   23125.76262574  .00000763  00000-0  66055-4 0  9997,2 53154  53.2155 148.0426 0001300  92.8220 267.2921 15.08836501 44513,6917.891,95.438,540.655,538.857,0.0
53154.0,STARLINK-4077,PAYLOAD,2023-05-06 05:25:52,15.08840078,0.0001226,53.2148,145.9612,96.1649,263.9483,5.9452e-05,6.58e-06,0.0,0 STARLINK-4077,1 53154U 22083Y   23126.22630564  .00000658  00000-0  59452-4 0  9993,2 53154  53.2148 145.9612 0001226  96.1649 263.9483 15.08840078 45215,6917.88,95.438,540.593,538.897,0.0
53154.0,STARLINK-4077,PAYLOAD,2023-05-06 10:12:02,15.08840555,0.0001218,53.2149,145.0691,95.4072,264.7059,5.675e-05,6.15e-06,0.0,0 STARLINK-4077,1 53154U 22083Y   23126.42502530  .00000615  00000-0  56750-4 0  9997,2 53154  53.2149 145.0691 0001218  95.4072 264.7059 15.08840555 44618,6917.879,95.438,540.586,538.901,0.0
53154.0,STARLINK-4077,PAYLOAD,2023-05-07 00:30:30,15.08834389,0.0001165,53.2151,142.3926,94.186,265.9265,6.6261e-05,7.67e-06,0.0,0 STARLINK-4077,1 53154U 22083Y   23127.02119034  .00000767  00000-0  66261-4 0  9993,2 53154  53.2151 142.3926 0001165  94.1860 265.9265 15.08834389 45334,6917.898,95.438,540.568,538.957,0.0
53154.0,STARLINK-4077,PAYLOAD,2023-05-07 08:27:27,15.08820083,0.0001077,53.2151,140.9077,101.9605,258.1508,-7.34e-05,-1.455e-05,0.0,0 STARLINK-4077,1 53154U 22083Y   23127.35240525 -.00001455  00000-0 -73400-4 0  9999,2 53154  53.2151 140.9077 0001077 101.9605 258.1508 15.08820083 45386,6917.941,95.439,540.551,539.061,0.0
53154.0,STARLINK-4077,PAYLOAD,2023-05-07 17:59:46,15.08820882,0.0001052,53.2151,139.1235,93.3028,266.8085,-5.3697e-05,-1.142e-05,0.0,0 STARLINK-4077,1 53154U 22083Y   23127.74984892 -.00001142  00000-0 -53697-4 0  9993,2 53154  53.2151 139.1235 0001052  93.3028 266.8085 15.08820882 44818,6917.939,95.439,540.532,539.076,0.0
53154.0,STARLINK-4077,PAYLOAD,2023-05-08 03:32:05,15.08825312,0.0001039,53.2153,137.338,92.6281,267.483,-1.2726e-05,-4.9e-06,0.0,0 STARLINK-4077,1 53154U 22083Y   23128.14728895 -.00000490  00000-0 -12726-4 0  9990,2 53154  53.2153 137.3380 0001039  92.6281 267.4830 15.08825312 45504,6917.925,95.438,540.509,539.072,0.0
53154.0,STARLINK-4077,PAYLOAD,2023-05-08 17:50:33,15.0883388,0.0001161,53.2162,134.6629,89.0894,271.0231,8.3248e-05,1.037e-05,0.0,0 STARLINK-4077,1 53154U 22083Y   23128.74344614  .00001037  00000-0  83248-4 0  9992,2 53154  53.2162 134.6629 0001161  89.0894 271.0231 15.08833880 44960,6917.899,95.438,540.567,538.961,0.0
53154.0,STARLINK-4077,PAYLOAD,2023-05-09 09:44:25,15.08831246,0.000124,53.2149,131.6881,92.3782,267.7352,0.00062752,9.711e-05,0.0,0 STARLINK-4077,1 53154U 22083Y   23129.40585520  .00009711  00000-0  62752-3 0  9992,2 53154  53.2149 131.6881 0001240  92.3782 267.7352 15.08831246 45065,6917.907,95.438,540.63,538.914,0.0
53154.0,STARLINK-4077,PAYLOAD,2023-05-10 06:24:25,15.08861069,0.0001173,53.2154,127.8213,88.1771,271.9355,0.00052051,8.01e-05,0.0,0 STARLINK-4077,1 53154U 22083Y   23130.26696050  .00008010  00000-0  52051-3 0  9991,2 53154  53.2154 127.8213 0001173  88.1771 271.9355 15.08861069 45193,6917.816,95.436,540.492,538.87,0.0
53154.0,STARLINK-4077,PAYLOAD,2023-05-11 06:15:11,15.08862736,0.0001201,53.2153,123.3601,90.5474,269.5655,0.00024399,3.6e-05,0.0,0 STARLINK-4077,1 53154U 22083Y   23131.26054791  .00003600  00000-0  24399-3 0  9996,2 53154  53.2153 123.3601 0001201  90.5474 269.5655 15.08862736 45977,6917.811,95.436,540.507,538.845,0.0
53154.0,STARLINK-4077,PAYLOAD,2023-05-12 06:05:58,15.08843171,0.000131,53.2154,118.8977,88.6268,271.4874,-0.00012382,-2.258e-05,0.0,0 STARLINK-4077,1 53154U 22083Y   23132.25414516 -.00002258  00000-0 -12382-3 0  9990,2 53154  53.2154 118.8977 0001310  88.6268 271.4874 15.08843171 45497,6917.871,95.437,540.642,538.829,0.0
53154.0,STARLINK-4077,PAYLOAD,2023-05-12 15:38:17,15.08846377,0.0001078,53.2148,117.1128,82.7631,277.3484,-2.7176e-05,-7.2e-06,0.0,0 STARLINK-4077,1 53154U 22083Y   23132.65158714 -.00000720  00000-0 -27176-4 0  9999,2 53154  53.2148 117.1128 0001078  82.7631 277.3484 15.08846377 46180,6917.861,95.437,540.472,538.98,0.0
53154.0,STARLINK-4077,PAYLOAD,2023-05-13 05:56:45,15.08842043,0.0001177,53.2158,114.4418,104.1644,255.9479,-4.1896e-05,-9.55e-06,0.0,0 STARLINK-4077,1 53154U 22083Y   23133.24774883 -.00000955  00000-0 -41896-4 0  9991,2 53154  53.2158 114.4418 0001177 104.1644 255.9479 15.08842043 45648,6917.874,95.437,540.553,538.925,0.0
53154.0,STARLINK-4077,PAYLOAD,2023-05-13 15:29:04,15.08841448,0.0001172,53.2159,112.6575,103.7881,256.3241,-1.9659e-05,-6.01e-06,0.0,0 STARLINK-4077,1 53154U 22083Y   23133.64518911 -.00000601  00000-0 -19659-4 0  9993,2 53154  53.2159 112.6575 0001172 103.7881 256.3241 15.08841448 46333,6917.876,95.437,540.552,538.93,0.0
53154.0,STARLINK-4077,PAYLOAD,2023-05-14 04:12:09,15.08834149,0.00013,53.2161,110.2793,108.8434,251.2699,4.9896e-05,5.06e-06,0.0,0 STARLINK-4077,1 53154U 22083Y   23134.17511515  .00000506  00000-0  49896-4 0  9993,2 53154  53.2161 110.2793 0001300 108.8434 251.2699 15.08834149 46415,6917.898,95.438,540.663,538.864,0.0
53154.0,STARLINK-4077,PAYLOAD,2023-05-14 05:47:33,15.08835372,0.0001222,53.2168,109.9812,106.6622,253.4504,9.3523e-05,1.201e-05,0.0,0 STARLINK-4077,1 53154U 22083Y   23134.24135677  .00001201  00000-0  93523-4 0  9991,2 53154  53.2168 109.9812 0001222 106.6622 253.4504 15.08835372 45795,6917.895,95.438,540.605,538.914,0.0
53154.0,STARLINK-4077,PAYLOAD,2023-05-14 15:19:51,15.08838734,0.0001194,53.2171,108.1963,100.0187,260.094,0.00011279,1.508e-05,0.0,0 STARLINK-4077,1 53154U 22083Y   23134.63879491  .00001508  00000-0  11279-3 0  9990,2 53154  53.2171 108.1963 0001194 100.0187 260.0940 15.08838734 45859,6917.884,95.438,540.575,538.923,0.0
53154.0,STARLINK-4077,PAYLOAD,2023-05-15 05:38:19,15.08844339,0.0001234,53.2173,105.5202,92.6268,267.4866,0.00012711,1.736e-05,0.0,0 STARLINK-4077,1 53154U 22083Y   23135.23495211  .00001736  00000-0  12711-3 0  9996,2 53154  53.2173 105.5202 0001234  92.6268 267.4866 15.08844339 46575,6917.867,95.437,540.586,538.878,0.0
53154.0,STARLINK-4077,PAYLOAD,2023-05-15 15:10:39,15.08838979,0.0001266,53.2173,103.7346,83.2794,276.8342,7.023e-05,8.3e-06,0.0,0 STARLINK-4077,1 53154U 22083Y   23135.63239696  .00000830  00000-0  70230-4 0  9998,2 53154  53.2173 103.7346 0001266  83.2794 276.8342 15.08838979 46632,6917.884,95.438,540.624,538.873,0.0
53154.0,STARLINK-4077,PAYLOAD,2023-05-16 07:04:30,15.08838958,0.00013,53.2175,100.7599,86.0726,274.0415,8.1032e-05,1.002e-05,0.0,0 STARLINK-4077,1 53154U 22083Y   23136.29479847  .00001002  00000-0  81032-4 0  9999,2 53154  53.2175 100.7599 0001300  86.0726 274.0415 15.08838958 46106,6917.884,95.438,540.648,538.849,0.0
53154.0,STARLINK-4077,PAYLOAD,2023-05-17 03:44:30,15.08847224,0.0001226,53.2167,96.8942,87.8271,272.2862,0.00010103,1.321e-05,0.0,0 STARLINK-4077,1 53154U 22083Y   23137.15591052  .00001321  00000-0  10103-3 0  9992,2 53154  53.2167  96.8942 0001226  87.8271 272.2862 15.08847224 46860,6917.858,95.437,540.571,538.875,0.0
53154.0,STARLINK-4077,PAYLOAD,2023-05-18 01:59:55,15.08835316,0.000111,53.2161,92.7308,88.1164,271.9955,6.5208e-05,7.5e-06,0.0,0 STARLINK-4077,1 53154U 22083Y   23138.08327877  .00000750  00000-0  65208-4 0  9999,2 53154  53.2161  92.7308 0001110  88.1164 271.9955 15.08835316 47007,6917.895,95.438,540.528,538.992,0.0
53154.0,STARLINK-4077,PAYLOAD,2023-05-18 06:46:04,15.08840307,0.0001083,53.2155,91.8412,73.6328,286.4783,3.3824e-05,2.51e-06,0.0,0 STARLINK-4077,1 53154U 22083Y   23138.28199666  .00000251  00000-0  33824-4 0  9999,2 53154  53.2155  91.8412 0001083  73.6328 286.4783 15.08840307 46405,6917.879,95.438,540.494,538.995,0.0
53154.0,STARLINK-4077,PAYLOAD,2023-05-19 01:50:42,15.08832908,0.0001218,53.2176,88.2713,87.2054,272.9077,0.00017898,2.561e-05,0.0,0 STARLINK-4077,1 53154U 22083Y   23139.07687584  .00002561  00000-0  17898-3 0  9996,2 53154  53.2176  88.2713 0001218  87.2054 272.9077 15.08832908 46526,6917.902,95.438,540.61,538.924,0.0
53154.0,STARLINK-4077,PAYLOAD,2023-05-20 03:16:52,15.0883929,0.000115,53.2179,83.5164,84.9673,275.145,5.9545e-05,6.6e-06,0.0,0 STARLINK-4077,1 53154U 22083Y   23140.13671785  .00000660  00000-0  59545-4 0  9995,2 53154  53.2179  83.5164 0001150  84.9673 275.1450 15.08839290 47312,6917.883,95.438,540.543,538.952,0.0
53154.0,STARLINK-4077,PAYLOAD,2023-05-21 03:07:38,15.08853838,0.0001376,53.2186,79.0575,108.0769,252.0374,0.00013585,1.876e-05,0.0,0 STARLINK-4077,1 53154U 22083Y   23141.13030465  .00001876  00000-0  13585-3 0  9993,2 53154  53.2186  79.0575 0001376 108.0769 252.0374 15.08853838 47469,6917.838,95.437,540.655,538.751,0.0
53154.0,STARLINK-4077,PAYLOAD,2023-05-22 01:23:03,15.08834242,0.0001289,53.2178,74.8953,115.4312,244.6814,-7.6322e-05,-1.502e-05,0.0,0 STARLINK-4077,1 53154U 22083Y   23142.05767842 -.00001502  00000-0 -76322-4 0  9998,2 53154  53.2178  74.8953 0001289 115.4312 244.6814 15.08834242 47602,6917.898,95.438,540.655,538.871,0.0
53154.0,STARLINK-4077,PAYLOAD,2023-05-22 12:30:45,15.08835006,0.0001142,53.2173,72.8102,87.7341,272.3782,-5.4094e-05,-1.148e-05,0.0,0 STARLINK-4077,1 53154U 22083Y   23142.52136067 -.00001148  00000-0 -54094-4 0  9997,2 53154  53.2173  72.8102 0001142  87.7341 272.3782 15.08835006 47041,6917.896,95.438,540.551,538.971,0.0
